CCSDS_OMM_VERS = 2.0
CREATION_DATE  = 
ORIGINATOR     = 

OBJECT_NAME    = UNKNOWN
OBJECT_ID      = 
CENTER_NAME    = EARTH
REF_FRAME      = TEME
TIME_SYSTEM    = UTC
MEAN_ELEMENT_THEORY = SGP/SGP4

EPOCH          = 2025-12-23T06:00:58.357152
MEAN_MOTION    = 12.81635670
ECCENTRICITY   = .02781811
INCLINATION    = 62.9604
RA_OF_ASC_NODE = 191.7772
ARG_OF_PERICENTER = 217.7120
MEAN_ANOMALY   = 140.4082

EPHEMERIS_TYPE = 0
CLASSIFICATION_TYPE = U
NORAD_CAT_ID   = 270159
ELEMENT_SET_NO = 999
REV_AT_EPOCH   = 28415
BSTAR          = .10627836E-2
MEAN_MOTION_DOT = .214E-5
MEAN_MOTION_DDOT = 0

CCSDS_OMM_VERS = 2.0
CREATION_DATE  = 
ORIGINATOR     = 

OBJECT_NAME    = UNKNOWN
OBJECT_ID      = 
CENTER_NAME    = EARTH
REF_FRAME      = TEME
TIME_SYSTEM    = UTC
MEAN_ELEMENT_THEORY = SGP/SGP4

EPOCH          = 2025-12-06T08:41:00.960288
MEAN_MOTION    = 12.15794735
ECCENTRICITY   = .08724305
INCLINATION    = 83.2790
RA_OF_ASC_NODE = 24.6351
ARG_OF_PERICENTER = 282.1024
MEAN_ANOMALY   = 68.3706

EPHEMERIS_TYPE = 0
CLASSIFICATION_TYPE = U
NORAD_CAT_ID   = 270160
ELEMENT_SET_NO = 999
REV_AT_EPOCH   = 26625
BSTAR          = .10206465E-1
MEAN_MOTION_DOT = .3326E-4
MEAN_MOTION_DDOT = 0

CCSDS_OMM_VERS = 2.0
CREATION_DATE  = 
ORIGINATOR     = 

OBJECT_NAME    = UNKNOWN
OBJECT_ID      = 
CENTER_NAME    = EARTH
REF_FRAME      = TEME
TIME_SYSTEM    = UTC
MEAN_ELEMENT_THEORY = SGP/SGP4

EPOCH          = 2025-12-15T04:40:20.022816
MEAN_MOTION    = 12.76520581
ECCENTRICITY   = .00549665
INCLINATION    = 101.0994
RA_OF_ASC_NODE = 331.9122
ARG_OF_PERICENTER = 266.4041
MEAN_ANOMALY   = 93.0760

EPHEMERIS_TYPE = 0
CLASSIFICATION_TYPE = U
NORAD_CAT_ID   = 270161
ELEMENT_SET_NO = 999
REV_AT_EPOCH   = 28149
BSTAR          = .27897806E-2
MEAN_MOTION_DOT = .565E-5
MEAN_MOTION_DDOT = 0

CCSDS_OMM_VERS = 2.0
CREATION_DATE  = 
ORIGINATOR     = 

OBJECT_NAME    = UNKNOWN
OBJECT_ID      = 
CENTER_NAME    = EARTH
REF_FRAME      = TEME
TIME_SYSTEM    = UTC
MEAN_ELEMENT_THEORY = SGP/SGP4

EPOCH          = 2025-12-11T08:35:58.583616
MEAN_MOTION    = 12.64495008
ECCENTRICITY   = .09274532
INCLINATION    = 28.8401
RA_OF_ASC_NODE = 235.8581
ARG_OF_PERICENTER = 254.6556
MEAN_ANOMALY   = 94.9734

EPHEMERIS_TYPE = 0
CLASSIFICATION_TYPE = U
NORAD_CAT_ID   = 270162
ELEMENT_SET_NO = 999
REV_AT_EPOCH   = 27807
BSTAR          = .15131829E-3
MEAN_MOTION_DOT = .237E-5
MEAN_MOTION_DDOT = 0

CCSDS_OMM_VERS = 2.0
CREATION_DATE  = 
ORIGINATOR     = 

OBJECT_NAME    = UNKNOWN
OBJECT_ID      = 
CENTER_NAME    = EARTH
REF_FRAME      = TEME
TIME_SYSTEM    = UTC
MEAN_ELEMENT_THEORY = SGP/SGP4

EPOCH          = 2025-12-15T19:10:14.988576
MEAN_MOTION    = 12.99967598
ECCENTRICITY   = .00274345
INCLINATION    = 90.2406
RA_OF_ASC_NODE = 7.1635
ARG_OF_PERICENTER = 37.2352
MEAN_ANOMALY   = 323.0665

EPHEMERIS_TYPE = 0
CLASSIFICATION_TYPE = U
NORAD_CAT_ID   = 270164
ELEMENT_SET_NO = 999
REV_AT_EPOCH   = 28615
BSTAR          = .18450954E-2
MEAN_MOTION_DOT = .563E-5
MEAN_MOTION_DDOT = 0

CCSDS_OMM_VERS = 2.0
CREATION_DATE  = 
ORIGINATOR     = 

OBJECT_NAME    = UNKNOWN
OBJECT_ID      = 
CENTER_NAME    = EARTH
REF_FRAME      = TEME
TIME_SYSTEM    = UTC
MEAN_ELEMENT_THEORY = SGP/SGP4

EPOCH          = 2025-12-08T08:59:22.703712
MEAN_MOTION    = 12.95675188
ECCENTRICITY   = .00420929
INCLINATION    = 90.2417
RA_OF_ASC_NODE = 7.9797
ARG_OF_PERICENTER = 339.8326
MEAN_ANOMALY   = 20.1129

EPHEMERIS_TYPE = 0
CLASSIFICATION_TYPE = U
NORAD_CAT_ID   = 270165
ELEMENT_SET_NO = 999
REV_AT_EPOCH   = 28375
BSTAR          = .22489947E-2
MEAN_MOTION_DOT = .646E-5
MEAN_MOTION_DDOT = 0

CCSDS_OMM_VERS = 2.0
CREATION_DATE  = 
ORIGINATOR     = 

OBJECT_NAME    = UNKNOWN
OBJECT_ID      = 
CENTER_NAME    = EARTH
REF_FRAME      = TEME
TIME_SYSTEM    = UTC
MEAN_ELEMENT_THEORY = SGP/SGP4

EPOCH          = 2025-12-18T07:28:04.571328
MEAN_MOTION    = 14.31207747
ECCENTRICITY   = .00043983
INCLINATION    = 98.7497
RA_OF_ASC_NODE = 8.0931
ARG_OF_PERICENTER = 218.4591
MEAN_ANOMALY   = 141.6279

EPHEMERIS_TYPE = 0
CLASSIFICATION_TYPE = U
NORAD_CAT_ID   = 270166
ELEMENT_SET_NO = 999
REV_AT_EPOCH   = 31592
BSTAR          = .1216549E-3
MEAN_MOTION_DOT = .276E-5
MEAN_MOTION_DDOT = 0

CCSDS_OMM_VERS = 2.0
CREATION_DATE  = 
ORIGINATOR     = 

OBJECT_NAME    = UNKNOWN
OBJECT_ID      = 
CENTER_NAME    = EARTH
REF_FRAME      = TEME
TIME_SYSTEM    = UTC
MEAN_ELEMENT_THEORY = SGP/SGP4

EPOCH          = 2025-12-20T23:38:02.292864
MEAN_MOTION    = 11.48035833
ECCENTRICITY   = .07034666
INCLINATION    = 65.7367
RA_OF_ASC_NODE = 102.8778
ARG_OF_PERICENTER = 192.1233
MEAN_ANOMALY   = 166.1978

EPHEMERIS_TYPE = 0
CLASSIFICATION_TYPE = U
NORAD_CAT_ID   = 270167
ELEMENT_SET_NO = 999
REV_AT_EPOCH   = 25404
BSTAR          = .23478926E-3
MEAN_MOTION_DOT = -.25E-6
MEAN_MOTION_DDOT = 0

CCSDS_OMM_VERS = 2.0
CREATION_DATE  = 
ORIGINATOR     = 

OBJECT_NAME    = UNKNOWN
OBJECT_ID      = 
CENTER_NAME    = EARTH
REF_FRAME      = TEME
TIME_SYSTEM    = UTC
MEAN_ELEMENT_THEORY = SGP/SGP4

EPOCH          = 2025-12-24T15:46:18.670656
MEAN_MOTION    = 14.38624378
ECCENTRICITY   = .00618742
INCLINATION    = 86.1964
RA_OF_ASC_NODE = 336.4831
ARG_OF_PERICENTER = 211.0586
MEAN_ANOMALY   = 148.6949

EPHEMERIS_TYPE = 0
CLASSIFICATION_TYPE = U
NORAD_CAT_ID   = 270168
ELEMENT_SET_NO = 999
REV_AT_EPOCH   = 31678
BSTAR          = .13611828E-2
MEAN_MOTION_DOT = .4281E-4
MEAN_MOTION_DDOT = 0

CCSDS_OMM_VERS = 2.0
CREATION_DATE  = 
ORIGINATOR     = 

OBJECT_NAME    = UNKNOWN
OBJECT_ID      = 
CENTER_NAME    = EARTH
REF_FRAME      = TEME
TIME_SYSTEM    = UTC
MEAN_ELEMENT_THEORY = SGP/SGP4

EPOCH          = 2025-12-25T01:23:31.619040
MEAN_MOTION    = 14.41508172
ECCENTRICITY   = .00149931
INCLINATION    = 65.0069
RA_OF_ASC_NODE = 284.8114
ARG_OF_PERICENTER = 282.6330
MEAN_ANOMALY   = 77.3083

EPHEMERIS_TYPE = 0
CLASSIFICATION_TYPE = U
NORAD_CAT_ID   = 270170
ELEMENT_SET_NO = 999
REV_AT_EPOCH   = 31862
BSTAR          = .56572833E-3
MEAN_MOTION_DOT = .1742E-4
MEAN_MOTION_DDOT = 0

CCSDS_OMM_VERS = 2.0
CREATION_DATE  = 
ORIGINATOR     = 

OBJECT_NAME    = UNKNOWN
OBJECT_ID      = 
CENTER_NAME    = EARTH
REF_FRAME      = TEME
TIME_SYSTEM    = UTC
MEAN_ELEMENT_THEORY = SGP/SGP4

EPOCH          = 2025-12-21T09:14:49.967520
MEAN_MOTION    = 14.45483184
ECCENTRICITY   = .00268011
INCLINATION    = 86.3738
RA_OF_ASC_NODE = 37.9346
ARG_OF_PERICENTER = 124.9495
MEAN_ANOMALY   = 235.4230

EPHEMERIS_TYPE = 0
CLASSIFICATION_TYPE = U
NORAD_CAT_ID   = 270172
ELEMENT_SET_NO = 999
REV_AT_EPOCH   = 31860
BSTAR          = .35030515E-3
MEAN_MOTION_DOT = .1259E-4
MEAN_MOTION_DDOT = 0

CCSDS_OMM_VERS = 2.0
CREATION_DATE  = 
ORIGINATOR     = 

OBJECT_NAME    = UNKNOWN
OBJECT_ID      = 
CENTER_NAME    = EARTH
REF_FRAME      = TEME
TIME_SYSTEM    = UTC
MEAN_ELEMENT_THEORY = SGP/SGP4

EPOCH          = 2025-12-21T22:38:44.655360
MEAN_MOTION    = 14.85064617
ECCENTRICITY   = .00026697
INCLINATION    = 86.6042
RA_OF_ASC_NODE = 62.0783
ARG_OF_PERICENTER = 79.0296
MEAN_ANOMALY   = 281.1228

EPHEMERIS_TYPE = 0
CLASSIFICATION_TYPE = U
NORAD_CAT_ID   = 270173
ELEMENT_SET_NO = 999
REV_AT_EPOCH   = 32542
BSTAR          = .40156285E-3
MEAN_MOTION_DOT = .3454E-4
MEAN_MOTION_DDOT = 0

CCSDS_OMM_VERS = 2.0
CREATION_DATE  = 
ORIGINATOR     = 

OBJECT_NAME    = UNKNOWN
OBJECT_ID      = 
CENTER_NAME    = EARTH
REF_FRAME      = TEME
TIME_SYSTEM    = UTC
MEAN_ELEMENT_THEORY = SGP/SGP4

EPOCH          = 2025-12-14T23:12:48.961440
MEAN_MOTION    = 11.49757827
ECCENTRICITY   = .09483013
INCLINATION    = 63.3945
RA_OF_ASC_NODE = 88.9577
ARG_OF_PERICENTER = 317.4840
MEAN_ANOMALY   = 35.6275

EPHEMERIS_TYPE = 0
CLASSIFICATION_TYPE = U
NORAD_CAT_ID   = 270174
ELEMENT_SET_NO = 999
REV_AT_EPOCH   = 25420
BSTAR          = .12731422E-2
MEAN_MOTION_DOT = .113E-5
MEAN_MOTION_DDOT = 0

CCSDS_OMM_VERS = 2.0
CREATION_DATE  = 
ORIGINATOR     = 

OBJECT_NAME    = UNKNOWN
OBJECT_ID      = 
CENTER_NAME    = EARTH
REF_FRAME      = TEME
TIME_SYSTEM    = UTC
MEAN_ELEMENT_THEORY = SGP/SGP4

EPOCH          = 2025-12-03T18:07:18.271776
MEAN_MOTION    = 12.20892280
ECCENTRICITY   = .08179113
INCLINATION    = 83.3306
RA_OF_ASC_NODE = 143.8878
ARG_OF_PERICENTER = 358.9028
MEAN_ANOMALY   = 1.0225

EPHEMERIS_TYPE = 0
CLASSIFICATION_TYPE = U
NORAD_CAT_ID   = 270175
ELEMENT_SET_NO = 999
REV_AT_EPOCH   = 26784
BSTAR          = .38338755E-2
MEAN_MOTION_DOT = .1184E-4
MEAN_MOTION_DDOT = 0

CCSDS_OMM_VERS = 2.0
CREATION_DATE  = 
ORIGINATOR     = 

OBJECT_NAME    = UNKNOWN
OBJECT_ID      = 
CENTER_NAME    = EARTH
REF_FRAME      = TEME
TIME_SYSTEM    = UTC
MEAN_ELEMENT_THEORY = SGP/SGP4

EPOCH          = 2025-12-14T17:35:21.214752
MEAN_MOTION    = 13.04479482
ECCENTRICITY   = .0029713
INCLINATION    = 90.2351
RA_OF_ASC_NODE = 352.9969
ARG_OF_PERICENTER = 340.4889
MEAN_ANOMALY   = 19.5096

EPHEMERIS_TYPE = 0
CLASSIFICATION_TYPE = U
NORAD_CAT_ID   = 270176
ELEMENT_SET_NO = 999
REV_AT_EPOCH   = 28673
BSTAR          = -.10549026E-2
MEAN_MOTION_DOT = -.331E-5
MEAN_MOTION_DDOT = 0

CCSDS_OMM_VERS = 2.0
CREATION_DATE  = 
ORIGINATOR     = 

OBJECT_NAME    = UNKNOWN
OBJECT_ID      = 
CENTER_NAME    = EARTH
REF_FRAME      = TEME
TIME_SYSTEM    = UTC
MEAN_ELEMENT_THEORY = SGP/SGP4

EPOCH          = 2025-12-01T22:27:15.693120
MEAN_MOTION    = 12.53578483
ECCENTRICITY   = .00923362
INCLINATION    = 100.9077
RA_OF_ASC_NODE = 43.2650
ARG_OF_PERICENTER = 314.5140
MEAN_ANOMALY   = 44.8417

EPHEMERIS_TYPE = 0
CLASSIFICATION_TYPE = U
NORAD_CAT_ID   = 270177
ELEMENT_SET_NO = 999
REV_AT_EPOCH   = 27463
BSTAR          = .28498476E-2
MEAN_MOTION_DOT = .421E-5
MEAN_MOTION_DDOT = 0

